C/2024 A2 (ATLAS),e,119.1145,78.1665,295.5831,32.53623,0.0053107,0.94216993,0.8660,10/09.0/2024,2000,g 12.5,4.0
# From MPEC 2024-TD8
C/2024 B1 (Lemmon),h,10/07.7026/2024,70.9048,79.1877,66.2101,1.000804,1.633649,2000,13.0,4.0
# From MPEC 2024-GJ3
C/2024 B2 (Lemmon),e,99.8430,294.3784,130.3346,4361,0.0000034,0.99906500,0.0000,10/06.0920/2023,2000,g 11.5,4.0
# From MPEC 2024-M41
C/2024 C1 (PANSTARRS),e,14.2269,83.8099,94.4660,10.56614,0.0286965,0.58235128,1.1229,10/09.0/2024,2000,g 11.5,4.0
# From MPEC 2024-JU4
C/2024 C2 (PANSTARRS),e,27.2844,66.4415,87.5392,16.19992,0.0151159,0.44497349,357.6968,10/09.0/2024,2000,g  6.0,4.0
# From MPEC 2024-GJ3
C/2024 C3 (PANSTARRS),e,22.4616,359.7091,159.6523,11.65314,0.0247765,0.42396586,8.3216,10/09.0/2024,2000,g  9.0,4.0
# From MPEC 2024-Q20
C/2024 C4 (ATLAS),e,79.2862,220.6835,321.5163,83.89450,0.0012826,0.98246485,0.0000,01/30.1938/2024,2000,g 14.5,4.0
# From MPEC 2024-EG1
A/2024 D1,e,132.4494,179.6662,125.7438,1758,0.0000134,0.99618694,0.0000,12/05.1021/2027,2000,g 11.0,2.0
# From MPEC 2024-TD8
C/2024 E1 (Wierzchos),h,01/20.7585/2026,75.2359,108.0956,243.6506,1.000024,0.565501,2000,7.0,4.0
# From MPEC 2024-JU4
C/2024 E2 (Bok),e,155.6477,135.6506,358.0618,51.68295,0.0026527,0.85115982,0.9306,10/09.0/2024,2000,g  8.0,4.0
# From MPEC 2024-JU4
P/2024 F1 (PANSTARRS),e,7.0055,251.5417,229.5513,3.443119,0.1542681,0.45989280,53.8897,10/09.0/2024,2000,g 16.0,4.0
# From MPEC 2024-Q20
C/2024 F2 (PANSTARRS),e,13.7410,138.9462,112.9093,9.949384,0.0314058,0.60115405,2.2571,10/09.0/2024,2000,g 11.0,4.0
# From MPEC 2024-RQ6
P/2024 FG9 (Nanshan-Hahn),e,1.7312,253.0438,245.9151,3.256582,0.1677108,0.50979396,23.7557,10/09.0/2024,2000,g 14.0,4.0
# From MPEC 2024-PC5
C/2024 G1 (Wierzchos),e,95.4003,30.6003,128.2249,121.7625,0.0007336,0.96772225,359.9911,10/09.0/2024,2000,g 10.0,4.0
# From MPEC 2024-JU4
C/2024 G2 (ATLAS),e,122.1310,171.3960,328.7901,892.8474,0.0000369,0.99401276,0.0000,06/13.7710/2025,2000,g  7.0,4.0
# From MPEC 2024-TD8
C/2024 G3 (ATLAS),h,01/13.4289/2025,116.8469,220.3381,108.1249,1.000009,0.093526,2000,9.0,4.0
# From MPEC 2024-P23
C/2024 G4 (PANSTARRS),e,33.0270,152.9956,131.4294,3041,0.0000059,0.99838877,0.0000,03/21.7539/2026,2000,g  8.0,4.0
# From MPEC 2024-JC6
C/2024 G5 (Leonard),e,50.3886,316.3983,209.5640,543.8127,0.0000777,0.99457009,0.0000,09/07.0044/2024,2000,g 13.0,4.0
# From MPEC 2024-RQ6
C/2024 G6 (ATLAS),h,02/21.0046/2026,120.4575,250.9519,23.4655,1.002345,6.428882,2000,5.5,4.0
# From MPEC 2024-Q20
C/2024 G7 (ATLAS),h,02/10.2520/2025,131.5186,191.9502,289.6616,1.001745,6.027675,2000,7.0,4.0
# From MPEC 2024-Q05
A/2024 G8,e,97.4102,11.2476,249.1587,143.6693,0.0005723,0.99183965,0.0000,06/15.6050/2024,2000,g 20.0,2.0
# From MPEC 2024-JU4
P/2024 J1 (PANSTARRS),e,13.1580,321.9497,200.3431,3.808029,0.1326337,0.30754559,44.1417,10/09.0/2024,2000,g 14.5,4.0
# From MPEC 2024-TD8
C/2024 J2 (Wierzchos),e,79.2962,189.0604,143.1548,148.7913,0.0005430,0.98782967,0.0000,03/19.7594/2025,2000,g 11.5,4.0
# From MPEC 2024-TD8
C/2024 J3 (ATLAS),h,11/25.2802/2026,75.6302,285.9631,74.0936,1.000914,3.864623,2000,5.0,4.0
# From MPEC 2024-TD8
C/2024 J4 (Lemmon),e,117.5351,19.2964,127.8664,4924,0.0000029,0.99884345,0.0000,04/26.1338/2025,2000,g  8.0,4.0
# From MPEC 2024-LB4
P/2024 K1 (PANSTARRS),e,1.7862,251.6909,351.9586,6.846692,0.0550152,0.49523112,8.4117,10/09.0/2024,2000,g 13.5,4.0
# From MPEC 2024-RQ6
C/2024 L1 (PANSTARRS),e,99.1717,45.1392,171.8318,11.46097,0.0254022,0.53339276,355.0079,10/09.0/2024,2000,g 10.0,4.0
# From MPEC 2024-P23
C/2024 L2 (PANSTARRS),e,139.4869,266.2865,345.6479,460.0151,0.0000999,0.98190050,0.0000,06/13.3322/2025,2000,g  7.5,3.2
# From MPEC 2024-RQ6
C/2024 L3 (PANSTARRS),h,11/24.4766/2023,111.5923,294.9858,59.0917,1.004653,6.858340,2000,9.5,4.0
# From MPEC 2024-RQ6
P/2024 L4 (Rankin),e,10.0461,139.7768,53.7086,2.228456,0.2962771,0.69837178,52.6512,10/09.0/2024,2000,g 21.5,4.0
# From MPEC 2024-TD8
C/2024 L5 (ATLAS),h,03/10.4733/2025,166.5731,139.1682,290.5260,1.037360,3.431912,2000,9.0,4.0
# From MPEC 2024-TD8
C/2024 M1 (ATLAS),e,73.7102,76.2152,345.6031,29.88613,0.0060325,0.94300474,359.7464,10/09.0/2024,2000,g 12.0,4.0
# From MPEC 2024-RQ6
C/2024 N1 (PANSTARRS),h,10/18.8447/2025,88.7716,323.0105,91.2477,1.001006,4.398277,2000,10.5,4.0
# From MPEC 2024-RQ6
P/2024 N2 (PANSTARRS),e,7.7897,245.0457,48.8831,3.795459,0.1332931,0.35702909,17.4551,10/09.0/2024,2000,g 16.0,4.0
# From MPEC 2024-TD8
C/2024 N3 (Sarneczky),h,04/11.3327/2025,88.7293,82.6089,86.8709,1.000850,5.014689,2000,8.0,4.0
# From MPEC 2024-TD8
C/2024 N4 (Sarneczky),h,01/09.9383/2025,49.7705,339.6662,116.6718,1.004714,5.397641,2000,7.5,4.0
# From MPEC 2024-PC5
C/2024 O1 (PANSTARRS),h,01/28.9987/2023,59.0729,303.3352,349.9243,1.001301,6.608162,2000,8.5,4.0
# From MPEC 2024-TD8
P/2024 O2 (PANSTARRS),e,28.9732,6.8065,310.7834,7.387214,0.0490889,0.49947103,8.4338,10/09.0/2024,2000,g 12.0,4.0
# From MPEC 2024-TD8
P/2024 Q1 (PANSTARRS),e,5.0155,23.1383,284.4105,3.517374,0.1494088,0.53478002,17.4011,10/09.0/2024,2000,g 17.0,4.0
# From MPEC 2024-TD8
C/2024 Q3 (PANSTARRS),h,03/05.2390/2025,121.3747,337.2837,70.1326,1.001364,2.091465,2000,15.0,4.0
# From MPEC 2024-S10
C/2024 Q4 (PANSTARRS),e,3.3451,323.4223,137.8909,48.04527,0.0029596,0.88915918,359.7865,10/09.0/2024,2000,g 10.0,4.0
# From MPEC 2024-TD8
P/2024 R1 (PANSTARRS),e,12.7364,84.9829,230.5809,3.450643,0.1537637,0.49291947,17.7338,10/09.0/2024,2000,g 18.0,4.0
# From MPEC 2024-TD8
P/2024 R2 (PANSTARRS),e,15.1081,193.0345,203.9006,3.138280,0.1772828,0.26638246,1.2949,10/09.0/2024,2000,g 15.5,4.0
# From MPEC 2024-TD8
P/2024 R3 (PANSTARRS),e,14.8579,33.2560,310.5027,3.179638,0.1738351,0.25674760,26.3191,10/09.0/2024,2000,g 15.0,4.0
# From MPEC 2024-TD8
C/2024 R4 (PANSTARRS),h,10/26.4756/2027,95.3449,345.9283,108.9605,1.002920,4.410940,2000,6.5,4.0
# From MPEC 2024-TD8
C/2024 S1 (ATLAS),e,142.0437,348.2560,69.9935,43.93745,0.0033842,0.99981337,0.0000,10/28.4865/2024,2000,g 15.5,4.0
# From MPEC 2024-TI1
P/2024 T1 (Rankin),e,17.6123,279.7447,164.8971,6.726477,0.0564966,0.65962683,0.4794,10/09.0/2024,2000,g 14.5,4.0
# From  98, 1083
1P/Halley,e,162.2069,59.6968,112.6086,17.86624,0.0130513,0.96708646,184.0112,10/09.0/2024,2000,g  4.0,6.0
# From MPEC 2024-TD8
2P/Encke,e,11.3397,334.0146,187.2830,2.218346,0.2983048,0.84699351,105.1423,10/09.0/2024,2000,g 11.5,6.0
# From  76, 1135
3D/Biela,e,7.8876,276.1867,192.2901,3.539285,0.1480235,0.76750746,321.4829,10/09.0/2024,2000,g 11.0,6.0
# From  76, 1135
3D-A/Biela,e,7.2154,276.6847,192.1195,3.550571,0.1473183,0.76714186,352.0269,10/09.0/2024,2000,g 11.0,6.0
# From  76, 1135
3D-B/Biela,e,7.8797,276.2014,192.2511,3.540033,0.1479766,0.76780550,321.2175,10/09.0/2024,2000,g 11.0,6.0
# From MPEC 2023-FK0
4P/Faye,e,8.0062,192.9205,207.1170,3.829125,0.1315391,0.57661452,148.0967,10/09.0/2024,2000,g  8.0,6.0
# From  27, 116
5D/Brorsen,e,18.6286,94.9057,20.3012,3.158296,0.1756001,0.83777601,94.9672,10/09.0/2024,2000,g 10.5,6.0
# From MPEC 2022-WD2
6P/d'Arrest,e,19.5005,138.9504,178.0742,3.497546,0.1506812,0.61194183,168.4721,10/09.0/2024,2000,g  7.5,16.0
# From MPEC 2023-A50
7P/Pons-Winnecke,e,22.4663,93.2707,172.4516,3.403671,0.1569577,0.64063111,193.2027,10/09.0/2024,2000,g 10.0,6.0
# From MPEC 2022-HC2
8P/Tuttle,e,54.9769,270.1756,207.4718,5.704400,0.0723418,0.82056626,82.3106,10/09.0/2024,2000,g  8.0,8.0
# From MPEC 2024-AF0
9P/Tempel,e,10.9145,67.4115,184.0929,3.251283,0.1681210,0.48892649,159.4001,10/09.0/2024,2000,g  5.5,10.0
# From MPEC 2024-R10
10P/Tempel,e,12.0283,117.8052,195.5140,3.063092,0.1838502,0.53746762,238.2590,10/09.0/2024,2000,g  5.0,10.0
# From MPEC 2024-R10
11P/Tempel-Swift-LINEAR,e,14.4347,238.8653,168.0369,3.283498,0.1656529,0.57755654,233.8209,10/09.0/2024,2000,g 17.0,4.0
# From MPEC 2024-RQ6
12P/Pons-Brooks,e,74.1921,255.8556,198.9898,17.18817,0.0138312,0.95457295,2.3634,10/09.0/2024,2000,g  5.0,6.0
# From MPEC 2024-TD8
13P/Olbers,e,44.6659,85.8472,64.4167,16.86477,0.0142309,0.93029991,1.4366,10/09.0/2024,2000,g  5.0,6.0
# From MPEC 2024-LE0
14P/Wolf,e,27.9220,202.0343,159.1812,4.256956,0.1122162,0.35684572,280.3410,10/09.0/2024,2000,g  5.5,12.0
# From MPEC 2022-ED3
15P/Finlay,e,6.7911,13.7438,347.8747,3.510252,0.1498638,0.71643205,177.3959,10/09.0/2024,2000,g 12.0,4.0
# From MPEC 2022-X67
16P/Brooks,e,3.0102,138.8415,245.3528,3.661270,0.1406878,0.48596987,178.6043,10/09.0/2024,2000,g  7.5,10.0
# From MPEC 2023-J29
17P/Holmes,e,19.0119,326.6196,24.6229,3.640522,0.1418922,0.42667104,188.3916,10/09.0/2024,2000,g 10.0,6.0
# From  19, 80
18D/Perrine-Mrkos,e,17.656,158.466,238.234,3.88319,0.128802,0.5896361,5.254,10/09.0/2024,2000,g  9.0,4.0
# From MPEC 2024-JU4
19P/Borrelly,e,29.3173,74.2145,351.9908,3.607991,0.1438155,0.63789121,140.9142,10/09.0/2024,2000,g  4.5,10.0
# From MPEC 2024-LE0
21P/Giacobini-Zinner,e,32.0505,195.3346,172.9263,3.492559,0.1510040,0.71110391,334.7291,10/09.0/2024,2000,g  9.0,6.0
# From MPEC 2024-L77
22P/Kopff,e,4.7680,120.4489,162.9016,3.426007,0.1554253,0.55282458,145.2655,10/09.0/2024,2000,g  3.0,10.4
# From MPC 14747
23P/Brorsen-Metcalf,e,19.4092,311.3841,129.7818,16.93950,0.0141369,0.97257619,0.0000,05/21.9983/2059,2000,g 10.0,6.0
# From MPC110085
24P/Schaumasse,e,11.5060,78.3714,58.3972,4.056094,0.1206541,0.70806782,304.9389,10/09.0/2024,2000,g  6.5,14.0
# From NK 378
25D/Neujmin 2,e,2.8080,279.9792,244.7809,3.223298,0.1703152,0.55071258,323.4885,10/09.0/2024,2000,g 12.5,6.0
# From MPEC 2024-TD8
26P/Grigg-Skjellerup,e,22.4333,211.5378,2.1366,3.015305,0.1882380,0.64056738,54.3386,10/09.0/2024,2000,g 12.0,16.0
# From MPC 78188
27P/Crommelin,e,29.4416,250.7090,195.8335,9.179169,0.0354404,0.91958875,170.7924,10/09.0/2024,2000,g 12.0,8.0
# From MPEC 2024-GJ3
28P/Neujmin,e,14.2994,346.3903,347.4716,6.982618,0.0534166,0.77297460,69.8707,10/09.0/2024,2000,g  8.5,6.0
# From MPEC 2024-TD8
29P/Schwassmann-Wachmann,e,9.3574,312.4058,52.1229,6.054782,0.0661540,0.04374969,131.3101,10/09.0/2024,2000,g  4.0,4.0
# From MPEC 2024-GJ3
